ONEWEB-0160             
1 48060U 21025U   24016.39292688  .00000384  00000+0  10161-2 0  9993
2 48060  87.9015 135.9437 0002045 134.2121 225.9176 13.13470258137677
ONEWEB-0163             
1 48061U 21025V   24016.37864029  .00000159  00000+0  40016-3 0  9999
2 48061  87.9010 135.9433 0001532  93.1173 267.0131 13.13472079137793
ONEWEB-0159             
1 48062U 21025W   24016.36753271 -.00000083  00000+0 -26234-3 0  9999
2 48062  87.9010 135.9309 0001365  97.7552 262.3732 13.13471879137715
ONEWEB-0164             
1 48063U 21025X   24016.35008493 -.00000207  00000+0 -60114-3 0  9991
2 48063  87.9009 135.9436 0001703 105.8488 254.2829 13.13469597137698
ONEWEB-0167             
1 48064U 21025Y   24016.37945264  .00000212  00000+0  54640-3 0  9991
2 48064  87.9011 135.9477 0001501  96.8066 263.3234 13.13472582137682
ONEWEB-0166             
1 48065U 21025Z   24016.40086025  .00000373  00000+0  98668-3 0  9993
2 48065  87.9010 135.9327 0001322 104.4975 255.6301 13.13471581137768
ONEWEB-0151             
1 48066U 21025AA  24016.40246143  .00000966  00000+0  26112-2 0  9995
2 48066  87.9013 135.9422 0002302 105.0809 255.0575 13.13466299137701
ONEWEB-0170             
1 48067U 21025AB  24016.33420942  .00000166  00000+0  41908-3 0  9992
2 48067  87.9011 135.9564 0002192 114.4313 245.7045 13.13469236137654
